[{"OBJECT_NAME":"ONEWEB-0567","OBJECT_ID":"2023-004H","EPOCH":"2026-01-08T06:22:31.586304","MEAN_MOTION":13.18684256,"ECCENTRICITY":0.0001363,"INCLINATION":87.9168,"RA_OF_ASC_NODE":7.2362,"ARG_OF_PERICENTER":93.3467,"MEAN_ANOMALY":266.7821,"EPHEMERIS_TYPE":0,"CLASSIFICATION_TYPE":"U","NORAD_CAT_ID":55147,"ELEMENT_SET_NO":999,"REV_AT_EPOCH":14862,"BSTAR":-8.8591112e-5,"MEAN_MOTION_DOT":-2.2e-7,"MEAN_MOTION_DDOT":0},{"OBJECT_NAME":"ONEWEB-0569","OBJECT_ID":"2023-004J","EPOCH":"2026-01-08T04:30:02.820096","MEAN_MOTION":13.13468898,"ECCENTRICITY":8.85e-5,"INCLINATION":87.9002,"RA_OF_ASC_NODE":352.006,"ARG_OF_PERICENTER":65.1799,"MEAN_ANOMALY":294.9422,"EPHEMERIS_TYPE":0,"CLASSIFICATION_TYPE":"U","NORAD_CAT_ID":55148,"ELEMENT_SET_NO":999,"REV_AT_EPOCH":14917,"BSTAR":-1.5593129e-5,"MEAN_MOTION_DOT":7.0e-8,"MEAN_MOTION_DDOT":0},{"OBJECT_NAME":"ONEWEB-0570","OBJECT_ID":"2023-004K","EPOCH":"2026-01-08T06:08:17.029824","MEAN_MOTION":13.18686042,"ECCENTRICITY":0.00018953,"INCLINATION":87.9167,"RA_OF_ASC_NODE":7.2375,"ARG_OF_PERICENTER":104.4535,"MEAN_ANOMALY":255.6808,"EPHEMERIS_TYPE":0,"CLASSIFICATION_TYPE":"U","NORAD_CAT_ID":55149,"ELEMENT_SET_NO":999,"REV_AT_EPOCH":14861,"BSTAR":6.2076725e-5,"MEAN_MOTION_DOT":3.7e-7,"MEAN_MOTION_DDOT":0},{"OBJECT_NAME":"ONEWEB-0571","OBJECT_ID":"2023-004L","EPOCH":"2026-01-08T05:58:47.617536","MEAN_MOTION":13.18685589,"ECCENTRICITY":7.513e-5,"INCLINATION":87.9166,"RA_OF_ASC_NODE":7.2379,"ARG_OF_PERICENTER":126.3095,"MEAN_ANOMALY":233.8106,"EPHEMERIS_TYPE":0,"CLASSIFICATION_TYPE":"U","NORAD_CAT_ID":55150,"ELEMENT_SET_NO":999,"REV_AT_EPOCH":14862,"BSTAR":-1.8868903e-5,"MEAN_MOTION_DOT":5.0e-8,"MEAN_MOTION_DDOT":0},{"OBJECT_NAME":"ONEWEB-0572","OBJECT_ID":"2023-004M","EPOCH":"2026-01-08T01:35:21.208416","MEAN_MOTION":13.17650033,"ECCENTRICITY":0.00016395,"INCLINATION":87.9089,"RA_OF_ASC_NODE":37.6979,"ARG_OF_PERICENTER":99.8426,"MEAN_ANOMALY":260.289,"EPHEMERIS_TYPE":0,"CLASSIFICATION_TYPE":"U","NORAD_CAT_ID":55151,"ELEMENT_SET_NO":999,"REV_AT_EPOCH":14639,"BSTAR":7.9621171e-5,"MEAN_MOTION_DOT":4.4e-7,"MEAN_MOTION_DDOT":0},{"OBJECT_NAME":"ONEWEB-0573","OBJECT_ID":"2023-004N","EPOCH":"2026-01-08T05:49:16.747680","MEAN_MOTION":13.18685776,"ECCENTRICITY":0.00014611,"INCLINATION":87.916,"RA_OF_ASC_NODE":7.2428,"ARG_OF_PERICENTER":116.6688,"MEAN_ANOMALY":243.4594,"EPHEMERIS_TYPE":0,"CLASSIFICATION_TYPE":"U","NORAD_CAT_ID":55152,"ELEMENT_SET_NO":999,"REV_AT_EPOCH":14861,"BSTAR":8.9508354e-5,"MEAN_MOTION_DOT":4.8e-7,"MEAN_MOTION_DDOT":0},{"OBJECT_NAME":"ONEWEB-0588","OBJECT_ID":"2023-004P","EPOCH":"2026-01-08T05:39:46.359936","MEAN_MOTION":13.18685692,"ECCENTRICITY":0.00017732,"INCLINATION":87.917,"RA_OF_ASC_NODE":7.2418,"ARG_OF_PERICENTER":103.3044,"MEAN_ANOMALY":256.8286,"EPHEMERIS_TYPE":0,"CLASSIFICATION_TYPE":"U","NORAD_CAT_ID":55153,"ELEMENT_SET_NO":999,"REV_AT_EPOCH":14861,"BSTAR":4.6382905e-5,"MEAN_MOTION_DOT":3.1e-7,"MEAN_MOTION_DDOT":0},{"OBJECT_NAME":"ONEWEB-0598","OBJECT_ID":"2023-004Q","EPOCH":"2026-01-08T03:58:56.263008","MEAN_MOTION":13.11418212,"ECCENTRICITY":0.00011524,"INCLINATION":87.8829,"RA_OF_ASC_NODE":52.9336,"ARG_OF_PERICENTER":100.0977,"MEAN_ANOMALY":260.0281,"EPHEMERIS_TYPE":0,"CLASSIFICATION_TYPE":"U","NORAD_CAT_ID":55154,"ELEMENT_SET_NO":999,"REV_AT_EPOCH":14492,"BSTAR":-6.505744e-6,"MEAN_MOTION_DOT":1.0e-7,"MEAN_MOTION_DDOT":0},{"OBJECT_NAME":"ONEWEB-0599","OBJECT_ID":"2023-004R","EPOCH":"2026-01-08T07:56:51.485280","MEAN_MOTION":13.17650718,"ECCENTRICITY":0.0001625,"INCLINATION":87.9087,"RA_OF_ASC_NODE":37.645,"ARG_OF_PERICENTER":89.9001,"MEAN_ANOMALY":270.2317,"EPHEMERIS_TYPE":0,"CLASSIFICATION_TYPE":"U","NORAD_CAT_ID":55155,"ELEMENT_SET_NO":999,"REV_AT_EPOCH":14643,"BSTAR":2.5995925e-5,"MEAN_MOTION_DOT":2.3e-7,"MEAN_MOTION_DDOT":0},{"OBJECT_NAME":"ONEWEB-0614","OBJECT_ID":"2023-004S","EPOCH":"2026-01-08T03:51:36.636480","MEAN_MOTION":13.11419585,"ECCENTRICITY":0.00020679,"INCLINATION":87.8828,"RA_OF_ASC_NODE":52.9436,"ARG_OF_PERICENTER":104.0088,"MEAN_ANOMALY":256.127,"EPHEMERIS_TYPE":0,"CLASSIFICATION_TYPE":"U","NORAD_CAT_ID":55156,"ELEMENT_SET_NO":999,"REV_AT_EPOCH":14486,"BSTAR":-0.00034042978,"MEAN_MOTION_DOT":-1.08e-6,"MEAN_MOTION_DDOT":0},{"OBJECT_NAME":"ONEWEB-0616","OBJECT_ID":"2023-004T","EPOCH":"2026-01-08T03:29:33.746208","MEAN_MOTION":13.17650153,"ECCENTRICITY":0.00018615,"INCLINATION":87.9098,"RA_OF_ASC_NODE":37.6766,"ARG_OF_PERICENTER":63.0691,"MEAN_ANOMALY":297.0631,"EPHEMERIS_TYPE":0,"CLASSIFICATION_TYPE":"U","NORAD_CAT_ID":55157,"ELEMENT_SET_NO":999,"REV_AT_EPOCH":14662,"BSTAR":-0.00015583944,"MEAN_MOTION_DOT":-4.8e-7,"MEAN_MOTION_DDOT":0},{"OBJECT_NAME":"ONEWEB-0617","OBJECT_ID":"2023-004U","EPOCH":"2026-01-08T03:34:30.616608","MEAN_MOTION":13.11417444,"ECCENTRICITY":0.00019,"INCLINATION":87.8832,"RA_OF_ASC_NODE":52.926,"ARG_OF_PERICENTER":109.5543,"MEAN_ANOMALY":250.579,"EPHEMERIS_TYPE":0,"CLASSIFICATION_TYPE":"U","NORAD_CAT_ID":55158,"ELEMENT_SET_NO":999,"REV_AT_EPOCH":14488,"BSTAR":-0.0018582851,"MEAN_MOTION_DOT":-6.46e-6,"MEAN_MOTION_DDOT":0},{"OBJECT_NAME":"ONEWEB-0618","OBJECT_ID":"2023-004V","EPOCH":"2026-01-08T04:29:42.972288","MEAN_MOTION":15.11191359,"ECCENTRICITY":0.0013529,"INCLINATION":86.9059,"RA_OF_ASC_NODE":242.5225,"ARG_OF_PERICENTER":157.6086,"MEAN_ANOMALY":202.5747,"EPHEMERIS_TYPE":0,"CLASSIFICATION_TYPE":"U","NORAD_CAT_ID":55159,"ELEMENT_SET_NO":999,"REV_AT_EPOCH":15808,"BSTAR":0.00036314156,"MEAN_MOTION_DOT":6.138e-5,"MEAN_MOTION_DDOT":0},{"OBJECT_NAME":"ONEWEB-0619","OBJECT_ID":"2023-004W","EPOCH":"2026-01-08T07:54:24.822144","MEAN_MOTION":13.17648282,"ECCENTRICITY":0.00022465,"INCLINATION":87.9096,"RA_OF_ASC_NODE":37.6136,"ARG_OF_PERICENTER":90.1437,"MEAN_ANOMALY":269.9952,"EPHEMERIS_TYPE":0,"CLASSIFICATION_TYPE":"U","NORAD_CAT_ID":55160,"ELEMENT_SET_NO":999,"REV_AT_EPOCH":14654,"BSTAR":-2.5992056e-5,"MEAN_MOTION_DOT":3.0e-8,"MEAN_MOTION_DDOT":0},{"OBJECT_NAME":"ONEWEB-0620","OBJECT_ID":"2023-004X","EPOCH":"2026-01-08T03:27:11.110176","MEAN_MOTION":13.11416402,"ECCENTRICITY":0.00016108,"INCLINATION":87.8827,"RA_OF_ASC_NODE":52.9461,"ARG_OF_PERICENTER":106.6605,"MEAN_ANOMALY":253.47,"EPHEMERIS_TYPE":0,"CLASSIFICATION_TYPE":"U","NORAD_CAT_ID":55161,"ELEMENT_SET_NO":999,"REV_AT_EPOCH":14485,"BSTAR":-0.0016524204,"MEAN_MOTION_DOT":-5.73e-6,"MEAN_MOTION_DDOT":0},{"OBJECT_NAME":"ONEWEB-0621","OBJECT_ID":"2023-004Y","EPOCH":"2026-01-08T04:06:15.488640","MEAN_MOTION":13.11427917,"ECCENTRICITY":0.00019193,"INCLINATION":87.8841,"RA_OF_ASC_NODE":52.9141,"ARG_OF_PERICENTER":98.8893,"MEAN_ANOMALY":261.2452,"EPHEMERIS_TYPE":0,"CLASSIFICATION_TYPE":"U","NORAD_CAT_ID":55162,"ELEMENT_SET_NO":999,"REV_AT_EPOCH":14483,"BSTAR":0.003475479,"MEAN_MOTION_DOT":1.245e-5,"MEAN_MOTION_DDOT":0},{"OBJECT_NAME":"ONEWEB-0622","OBJECT_ID":"2023-004Z","EPOCH":"2026-01-08T04:13:36.128640","MEAN_MOTION":13.11418267,"ECCENTRICITY":0.00021965,"INCLINATION":87.8828,"RA_OF_ASC_NODE":52.9192,"ARG_OF_PERICENTER":117.2865,"MEAN_ANOMALY":242.8487,"EPHEMERIS_TYPE":0,"CLASSIFICATION_TYPE":"U","NORAD_CAT_ID":55163,"ELEMENT_SET_NO":999,"REV_AT_EPOCH":14482,"BSTAR":0.0014973906,"MEAN_MOTION_DOT":5.43e-6,"MEAN_MOTION_DDOT":0},{"OBJECT_NAME":"ONEWEB-0623","OBJECT_ID":"2023-004AA","EPOCH":"2026-01-08T07:47:08.608416","MEAN_MOTION":13.17649854,"ECCENTRICITY":0.00025104,"INCLINATION":87.9086,"RA_OF_ASC_NODE":37.6617,"ARG_OF_PERICENTER":103.8021,"MEAN_ANOMALY":256.339,"EPHEMERIS_TYPE":0,"CLASSIFICATION_TYPE":"U","NORAD_CAT_ID":55164,"ELEMENT_SET_NO":999,"REV_AT_EPOCH":14653,"BSTAR":-0.00018407327,"MEAN_MOTION_DOT":-5.9e-7,"MEAN_MOTION_DDOT":0},{"OBJECT_NAME":"ONEWEB-0624","OBJECT_ID":"2023-004AB","EPOCH":"2026-01-08T07:23:35.192544","MEAN_MOTION":13.12924212,"ECCENTRICITY":0.00019852,"INCLINATION":87.8916,"RA_OF_ASC_NODE":22.3653,"ARG_OF_PERICENTER":97.2395,"MEAN_ANOMALY":262.896,"EPHEMERIS_TYPE":0,"CLASSIFICATION_TYPE":"U","NORAD_CAT_ID":55165,"ELEMENT_SET_NO":999,"REV_AT_EPOCH":14709,"BSTAR":-3.1536409e-5,"MEAN_MOTION_DOT":1.0e-8,"MEAN_MOTION_DDOT":0},{"OBJECT_NAME":"ONEWEB-0625","OBJECT_ID":"2023-004AC","EPOCH":"2026-01-08T07:32:32.753472","MEAN_MOTION":13.1764827,"ECCENTRICITY":0.0001808,"INCLINATION":87.9085,"RA_OF_ASC_NODE":37.658,"ARG_OF_PERICENTER":88.0726,"MEAN_ANOMALY":272.0613,"EPHEMERIS_TYPE":0,"CLASSIFICATION_TYPE":"U","NORAD_CAT_ID":55166,"ELEMENT_SET_NO":999,"REV_AT_EPOCH":14652,"BSTAR":-9.2525357e-5,"MEAN_MOTION_DOT":-2.3e-7,"MEAN_MOTION_DDOT":0},{"OBJECT_NAME":"ONEWEB-0626","OBJECT_ID":"2023-004AD","EPOCH":"2026-01-08T07:17:57.842016","MEAN_MOTION":13.17648243,"ECCENTRICITY":0.00013345,"INCLINATION":87.9088,"RA_OF_ASC_NODE":37.6604,"ARG_OF_PERICENTER":101.327,"MEAN_ANOMALY":258.8012,"EPHEMERIS_TYPE":0,"CLASSIFICATION_TYPE":"U","NORAD_CAT_ID":55167,"ELEMENT_SET_NO":999,"REV_AT_EPOCH":14652,"BSTAR":-4.264793e-5,"MEAN_MOTION_DOT":-4.0e-8,"MEAN_MOTION_DDOT":0},{"OBJECT_NAME":"ONEWEB-0627","OBJECT_ID":"2023-004AE","EPOCH":"2026-01-08T01:32:55.434336","MEAN_MOTION":13.17649697,"ECCENTRICITY":0.0002217,"INCLINATION":87.9084,"RA_OF_ASC_NODE":37.7083,"ARG_OF_PERICENTER":105.3787,"MEAN_ANOMALY":254.7589,"EPHEMERIS_TYPE":0,"CLASSIFICATION_TYPE":"U","NORAD_CAT_ID":55168,"ELEMENT_SET_NO":999,"REV_AT_EPOCH":14649,"BSTAR":5.779296e-6,"MEAN_MOTION_DOT":1.5e-7,"MEAN_MOTION_DDOT":0},{"OBJECT_NAME":"ONEWEB-0628","OBJECT_ID":"2023-004AF","EPOCH":"2026-01-08T07:22:02.479296","MEAN_MOTION":13.12447013,"ECCENTRICITY":0.0002483,"INCLINATION":87.8927,"RA_OF_ASC_NODE":22.3996,"ARG_OF_PERICENTER":96.7912,"MEAN_ANOMALY":263.3499,"EPHEMERIS_TYPE":0,"CLASSIFICATION_TYPE":"U","NORAD_CAT_ID":55169,"ELEMENT_SET_NO":999,"REV_AT_EPOCH":14706,"BSTAR":-0.00033912281,"MEAN_MOTION_DOT":-1.09e-6,"MEAN_MOTION_DDOT":0}]
